CCSDS_OMM_VERS = 2.0
CREATION_DATE  = 
ORIGINATOR     = 

OBJECT_NAME    = TITAN 4B R/B
OBJECT_ID      = 2000-047B
CENTER_NAME    = EARTH
REF_FRAME      = TEME
TIME_SYSTEM    = UTC
MEAN_ELEMENT_THEORY = SGP/SGP4

EPOCH          = 2025-11-12T07:28:38.391744
MEAN_MOTION    = 15.08457258
ECCENTRICITY   = .00418131
INCLINATION    = 67.9916
RA_OF_ASC_NODE = 10.2930
ARG_OF_PERICENTER = 180.1947
MEAN_ANOMALY   = 179.9193

EPHEMERIS_TYPE = 0
CLASSIFICATION_TYPE = U
NORAD_CAT_ID   = 26474
ELEMENT_SET_NO = 999
REV_AT_EPOCH   = 37520
BSTAR          = .59594721E-3
MEAN_MOTION_DOT = .9374E-4
MEAN_MOTION_DDOT = 0

CCSDS_OMM_VERS = 2.0
CREATION_DATE  = 
ORIGINATOR     = 

OBJECT_NAME    = ENVISAT
OBJECT_ID      = 2002-009A
CENTER_NAME    = EARTH
REF_FRAME      = TEME
TIME_SYSTEM    = UTC
MEAN_ELEMENT_THEORY = SGP/SGP4

EPOCH          = 2025-11-12T07:43:53.231232
MEAN_MOTION    = 14.38982529
ECCENTRICITY   = .00013088
INCLINATION    = 98.3552
RA_OF_ASC_NODE = 267.8417
ARG_OF_PERICENTER = 82.8329
MEAN_ANOMALY   = 37.0400

EPHEMERIS_TYPE = 0
CLASSIFICATION_TYPE = U
NORAD_CAT_ID   = 27386
ELEMENT_SET_NO = 999
REV_AT_EPOCH   = 24229
BSTAR          = .14058455E-3
MEAN_MOTION_DOT = .391E-5
MEAN_MOTION_DDOT = 0

CCSDS_OMM_VERS = 2.0
CREATION_DATE  = 
ORIGINATOR     = 

OBJECT_NAME    = IDEFIX & ARIANE 42P R/B
OBJECT_ID      = 2002-021B
CENTER_NAME    = EARTH
REF_FRAME      = TEME
TIME_SYSTEM    = UTC
MEAN_ELEMENT_THEORY = SGP/SGP4

EPOCH          = 2025-11-12T07:20:35.101248
MEAN_MOTION    = 14.30917202
ECCENTRICITY   = .00118506
INCLINATION    = 98.5739
RA_OF_ASC_NODE = 251.3995
ARG_OF_PERICENTER = 167.7404
MEAN_ANOMALY   = 192.4069

EPHEMERIS_TYPE = 0
CLASSIFICATION_TYPE = U
NORAD_CAT_ID   = 27422
ELEMENT_SET_NO = 999
REV_AT_EPOCH   = 22723
BSTAR          = .31435032E-3
MEAN_MOTION_DOT = .783E-5
MEAN_MOTION_DDOT = 0

CCSDS_OMM_VERS = 2.0
CREATION_DATE  = 
ORIGINATOR     = 

OBJECT_NAME    = AQUA
OBJECT_ID      = 2002-022A
CENTER_NAME    = EARTH
REF_FRAME      = TEME
TIME_SYSTEM    = UTC
MEAN_ELEMENT_THEORY = SGP/SGP4

EPOCH          = 2025-11-12T07:35:53.655936
MEAN_MOTION    = 14.61700237
ECCENTRICITY   = .00008354
INCLINATION    = 98.3992
RA_OF_ASC_NODE = 276.7108
ARG_OF_PERICENTER = 53.7387
MEAN_ANOMALY   = 110.1688

EPHEMERIS_TYPE = 0
CLASSIFICATION_TYPE = U
NORAD_CAT_ID   = 27424
ELEMENT_SET_NO = 999
REV_AT_EPOCH   = 25158
BSTAR          = .60537423E-3
MEAN_MOTION_DOT = .2967E-4
MEAN_MOTION_DDOT = 0

CCSDS_OMM_VERS = 2.0
CREATION_DATE  = 
ORIGINATOR     = 

OBJECT_NAME    = CZ-4B R/B
OBJECT_ID      = 2002-024C
CENTER_NAME    = EARTH
REF_FRAME      = TEME
TIME_SYSTEM    = UTC
MEAN_ELEMENT_THEORY = SGP/SGP4

EPOCH          = 2025-11-12T03:49:46.853184
MEAN_MOTION    = 14.14518193
ECCENTRICITY   = .00500698
INCLINATION    = 98.9047
RA_OF_ASC_NODE = 5.0310
ARG_OF_PERICENTER = 357.9635
MEAN_ANOMALY   = 66.3096

EPHEMERIS_TYPE = 0
CLASSIFICATION_TYPE = U
NORAD_CAT_ID   = 27432
ELEMENT_SET_NO = 999
REV_AT_EPOCH   = 21262
BSTAR          = .673464E-4
MEAN_MOTION_DOT = .86E-6
MEAN_MOTION_DDOT = 0

CCSDS_OMM_VERS = 2.0
CREATION_DATE  = 
ORIGINATOR     = 

OBJECT_NAME    = MIDORI II (ADEOS-II)
OBJECT_ID      = 2002-056A
CENTER_NAME    = EARTH
REF_FRAME      = TEME
TIME_SYSTEM    = UTC
MEAN_ELEMENT_THEORY = SGP/SGP4

EPOCH          = 2025-11-12T06:16:18.208704
MEAN_MOTION    = 14.29174749
ECCENTRICITY   = .00013639
INCLINATION    = 98.7588
RA_OF_ASC_NODE = 269.0658
ARG_OF_PERICENTER = 34.7581
MEAN_ANOMALY   = 325.3690

EPHEMERIS_TYPE = 0
CLASSIFICATION_TYPE = U
NORAD_CAT_ID   = 27597
ELEMENT_SET_NO = 999
REV_AT_EPOCH   = 19352
BSTAR          = .31186621E-3
MEAN_MOTION_DOT = .747E-5
MEAN_MOTION_DDOT = 0

CCSDS_OMM_VERS = 2.0
CREATION_DATE  = 
ORIGINATOR     = 

OBJECT_NAME    = H-2A R/B
OBJECT_ID      = 2002-056E
CENTER_NAME    = EARTH
REF_FRAME      = TEME
TIME_SYSTEM    = UTC
MEAN_ELEMENT_THEORY = SGP/SGP4

EPOCH          = 2025-11-12T08:01:10.210080
MEAN_MOTION    = 14.33643497
ECCENTRICITY   = .00708261
INCLINATION    = 98.3020
RA_OF_ASC_NODE = 276.3096
ARG_OF_PERICENTER = 150.4248
MEAN_ANOMALY   = 337.5080

EPHEMERIS_TYPE = 0
CLASSIFICATION_TYPE = U
NORAD_CAT_ID   = 27601
ELEMENT_SET_NO = 999
REV_AT_EPOCH   = 19729
BSTAR          = .25758776E-3
MEAN_MOTION_DOT = .693E-5
MEAN_MOTION_DDOT = 0

CCSDS_OMM_VERS = 2.0
CREATION_DATE  = 
ORIGINATOR     = 

OBJECT_NAME    = CZ-4B R/B
OBJECT_ID      = 2003-049C
CENTER_NAME    = EARTH
REF_FRAME      = TEME
TIME_SYSTEM    = UTC
MEAN_ELEMENT_THEORY = SGP/SGP4

EPOCH          = 2025-11-11T23:47:12.018912
MEAN_MOTION    = 14.54865093
ECCENTRICITY   = .00473288
INCLINATION    = 98.6769
RA_OF_ASC_NODE = 301.3972
ARG_OF_PERICENTER = 230.1020
MEAN_ANOMALY   = 129.6010

EPHEMERIS_TYPE = 0
CLASSIFICATION_TYPE = U
NORAD_CAT_ID   = 28059
ELEMENT_SET_NO = 999
REV_AT_EPOCH   = 16948
BSTAR          = .16296415E-3
MEAN_MOTION_DOT = .658E-5
MEAN_MOTION_DDOT = 0

CCSDS_OMM_VERS = 2.0
CREATION_DATE  = 
ORIGINATOR     = 

OBJECT_NAME    = CZ-2C R/B
OBJECT_ID      = 2004-012C
CENTER_NAME    = EARTH
REF_FRAME      = TEME
TIME_SYSTEM    = UTC
MEAN_ELEMENT_THEORY = SGP/SGP4

EPOCH          = 2025-11-12T02:11:23.561952
MEAN_MOTION    = 15.52741755
ECCENTRICITY   = .00193751
INCLINATION    = 97.7478
RA_OF_ASC_NODE = 6.2395
ARG_OF_PERICENTER = 26.0604
MEAN_ANOMALY   = 334.1619

EPHEMERIS_TYPE = 0
CLASSIFICATION_TYPE = U
NORAD_CAT_ID   = 28222
ELEMENT_SET_NO = 999
REV_AT_EPOCH   = 18596
BSTAR          = .67411228E-3
MEAN_MOTION_DOT = .42028E-3
MEAN_MOTION_DDOT = 0

CCSDS_OMM_VERS = 2.0
CREATION_DATE  = 
ORIGINATOR     = 

OBJECT_NAME    = SL-16 R/B
OBJECT_ID      = 2004-021B
CENTER_NAME    = EARTH
REF_FRAME      = TEME
TIME_SYSTEM    = UTC
MEAN_ELEMENT_THEORY = SGP/SGP4

EPOCH          = 2025-11-12T05:09:12.828384
MEAN_MOTION    = 14.14572010
ECCENTRICITY   = .00066047
INCLINATION    = 70.9976
RA_OF_ASC_NODE = 119.0207
ARG_OF_PERICENTER = 231.3813
MEAN_ANOMALY   = 128.6719

EPHEMERIS_TYPE = 0
CLASSIFICATION_TYPE = U
NORAD_CAT_ID   = 28353
ELEMENT_SET_NO = 999
REV_AT_EPOCH   = 10622
BSTAR          = .17757376E-3
MEAN_MOTION_DOT = .293E-5
MEAN_MOTION_DDOT = 0

CCSDS_OMM_VERS = 2.0
CREATION_DATE  = 
ORIGINATOR     = 

OBJECT_NAME    = CZ-4B R/B
OBJECT_ID      = 2004-035C
CENTER_NAME    = EARTH
REF_FRAME      = TEME
TIME_SYSTEM    = UTC
MEAN_ELEMENT_THEORY = SGP/SGP4

EPOCH          = 2025-11-12T02:10:10.731072
MEAN_MOTION    = 15.26648336
ECCENTRICITY   = .00346571
INCLINATION    = 97.3656
RA_OF_ASC_NODE = 346.8521
ARG_OF_PERICENTER = 28.2923
MEAN_ANOMALY   = 332.0189

EPHEMERIS_TYPE = 0
CLASSIFICATION_TYPE = U
NORAD_CAT_ID   = 28415
ELEMENT_SET_NO = 999
REV_AT_EPOCH   = 16195
BSTAR          = .40462309E-3
MEAN_MOTION_DOT = .10726E-3
MEAN_MOTION_DDOT = 0

CCSDS_OMM_VERS = 2.0
CREATION_DATE  = 
ORIGINATOR     = 

OBJECT_NAME    = CZ-2C R/B
OBJECT_ID      = 2004-046B
CENTER_NAME    = EARTH
REF_FRAME      = TEME
TIME_SYSTEM    = UTC
MEAN_ELEMENT_THEORY = SGP/SGP4

EPOCH          = 2025-11-12T05:54:12.627936
MEAN_MOTION    = 14.26920489
ECCENTRICITY   = .014024
INCLINATION    = 98.1960
RA_OF_ASC_NODE = 233.5240
ARG_OF_PERICENTER = 141.7788
MEAN_ANOMALY   = 219.3438

EPHEMERIS_TYPE = 0
CLASSIFICATION_TYPE = U
NORAD_CAT_ID   = 28480
ELEMENT_SET_NO = 999
REV_AT_EPOCH   = 9175
BSTAR          = .16523881E-3
MEAN_MOTION_DOT = .405E-5
MEAN_MOTION_DDOT = 0

