TITAN 4B R/B            
1 26474U 00047B   25316.31155546  .00009374  00000+0  59595-3 0  9999
2 26474  67.9916  10.2930 0041813 180.1947 179.9193 15.08457258375206
ENVISAT                 
1 27386U 02009A   25316.32214388  .00000391  00000+0  14058-3 0  9998
2 27386  98.3552 267.8417 0001308  82.8329  37.0400 14.38982529242293
IDEFIX & ARIANE 42P R/B 
1 27422U 02021B   25316.30596182  .00000783  00000+0  31435-3 0  9999
2 27422  98.5739 251.3995 0011850 167.7404 192.4069 14.30917202227234
AQUA                    
1 27424U 02022A   25316.31659324  .00002967  00000+0  60537-3 0  9992
2 27424  98.3992 276.7108 0000835  53.7387 110.1688 14.61700237251588
CZ-4B R/B               
1 27432U 02024C   25316.15957006  .00000086  00000+0  67346-4 0  9999
2 27432  98.9047   5.0310 0050069 357.9635  66.3096 14.14518193212624
MIDORI II (ADEOS-II)    
1 27597U 02056A   25316.26132186  .00000747  00000+0  31187-3 0  9999
2 27597  98.7588 269.0658 0001363  34.7581 325.3690 14.29174749193520
H-2A R/B                
1 27601U 02056E   25316.33414595  .00000693  00000+0  25759-3 0  9998
2 27601  98.3020 276.3096 0070826 150.4248 337.5080 14.33643497197298
CZ-4B R/B               
1 28059U 03049C   25315.99111133  .00000658  00000+0  16296-3 0  9999
2 28059  98.6769 301.3972 0047328 230.1020 129.6010 14.54865093169480
CZ-2C R/B               
1 28222U 04012C   25316.09124493  .00042028  00000+0  67411-3 0  9999
2 28222  97.7478   6.2395 0019375  26.0604 334.1619 15.52741755185966
SL-16 R/B               
1 28353U 04021B   25316.21473181  .00000293  00000+0  17757-3 0  9995
2 28353  70.9976 119.0207 0006604 231.3813 128.6719 14.14572010106228
CZ-4B R/B               
1 28415U 04035C   25316.09040198  .00010726  00000+0  40462-3 0  9994
2 28415  97.3656 346.8521 0034657  28.2923 332.0189 15.26648336161950
CZ-2C R/B               
1 28480U 04046B   25316.24597949  .00000405  00000+0  16524-3 0  9991
2 28480  98.1960 233.5240 0140240 141.7788 219.3438 14.26920489 91750
